CCSDS_OMM_VERS = 2.0
CREATION_DATE  = 
ORIGINATOR     = 

OBJECT_NAME    = DUPLEX
OBJECT_ID      = 1998-067XS
CENTER_NAME    = EARTH
REF_FRAME      = TEME
TIME_SYSTEM    = UTC
MEAN_ELEMENT_THEORY = SGP/SGP4

EPOCH          = 2026-01-21T09:37:35.948064
MEAN_MOTION    = 15.52903830
ECCENTRICITY   = .000196
INCLINATION    = 51.6311
RA_OF_ASC_NODE = 305.3892
ARG_OF_PERICENTER = 40.4945
MEAN_ANOMALY   = 319.6190

EPHEMERIS_TYPE = 0
CLASSIFICATION_TYPE = U
NORAD_CAT_ID   = 66906
ELEMENT_SET_NO = 999
REV_AT_EPOCH   = 777
BSTAR          = .47182E-3
MEAN_MOTION_DOT = .29514E-3
MEAN_MOTION_DDOT = 0

CCSDS_OMM_VERS = 2.0
CREATION_DATE  = 
ORIGINATOR     = 

OBJECT_NAME    = 1998-067XT
OBJECT_ID      = 1998-067XT
CENTER_NAME    = EARTH
REF_FRAME      = TEME
TIME_SYSTEM    = UTC
MEAN_ELEMENT_THEORY = SGP/SGP4

EPOCH          = 2026-01-20T18:07:04.687104
MEAN_MOTION    = 15.57431475
ECCENTRICITY   = .00034503
INCLINATION    = 51.6299
RA_OF_ASC_NODE = 307.8230
ARG_OF_PERICENTER = 94.6771
MEAN_ANOMALY   = 265.4615

EPHEMERIS_TYPE = 0
CLASSIFICATION_TYPE = U
NORAD_CAT_ID   = 66907
ELEMENT_SET_NO = 999
REV_AT_EPOCH   = 768
BSTAR          = .22403369E-2
MEAN_MOTION_DOT = .170709E-2
MEAN_MOTION_DDOT = 0

CCSDS_OMM_VERS = 2.0
CREATION_DATE  = 
ORIGINATOR     = 

OBJECT_NAME    = 1998-067XU
OBJECT_ID      = 1998-067XU
CENTER_NAME    = EARTH
REF_FRAME      = TEME
TIME_SYSTEM    = UTC
MEAN_ELEMENT_THEORY = SGP/SGP4

EPOCH          = 2026-01-20T22:43:18.914016
MEAN_MOTION    = 15.57411728
ECCENTRICITY   = .00033572
INCLINATION    = 51.6296
RA_OF_ASC_NODE = 306.8521
ARG_OF_PERICENTER = 91.6665
MEAN_ANOMALY   = 268.4712

EPHEMERIS_TYPE = 0
CLASSIFICATION_TYPE = U
NORAD_CAT_ID   = 66908
ELEMENT_SET_NO = 999
REV_AT_EPOCH   = 771
BSTAR          = .16736281E-2
MEAN_MOTION_DOT = .1266E-2
MEAN_MOTION_DDOT = 0

CCSDS_OMM_VERS = 2.0
CREATION_DATE  = 
ORIGINATOR     = 

OBJECT_NAME    = SILVERSAT
OBJECT_ID      = 1998-067XV
CENTER_NAME    = EARTH
REF_FRAME      = TEME
TIME_SYSTEM    = UTC
MEAN_ELEMENT_THEORY = SGP/SGP4

EPOCH          = 2026-01-21T12:17:33.496800
MEAN_MOTION    = 15.58528554
ECCENTRICITY   = .0003622
INCLINATION    = 51.6302
RA_OF_ASC_NODE = 303.8789
ARG_OF_PERICENTER = 107.2131
MEAN_ANOMALY   = 252.9258

EPHEMERIS_TYPE = 0
CLASSIFICATION_TYPE = U
NORAD_CAT_ID   = 66909
ELEMENT_SET_NO = 999
REV_AT_EPOCH   = 780
BSTAR          = .14429E-2
MEAN_MOTION_DOT = .113589E-2
MEAN_MOTION_DDOT = 0

CCSDS_OMM_VERS = 2.0
CREATION_DATE  = 
ORIGINATOR     = 

OBJECT_NAME    = 1998-067XW
OBJECT_ID      = 1998-067XW
CENTER_NAME    = EARTH
REF_FRAME      = TEME
TIME_SYSTEM    = UTC
MEAN_ELEMENT_THEORY = SGP/SGP4

EPOCH          = 2026-01-21T04:40:48.836352
MEAN_MOTION    = 15.57818344
ECCENTRICITY   = .0002133
INCLINATION    = 51.6292
RA_OF_ASC_NODE = 305.5072
ARG_OF_PERICENTER = 84.1461
MEAN_ANOMALY   = 275.9774

EPHEMERIS_TYPE = 0
CLASSIFICATION_TYPE = U
NORAD_CAT_ID   = 66910
ELEMENT_SET_NO = 999
REV_AT_EPOCH   = 775
BSTAR          = .1517E-2
MEAN_MOTION_DOT = .116308E-2
MEAN_MOTION_DDOT = 0

CCSDS_OMM_VERS = 2.0
CREATION_DATE  = 
ORIGINATOR     = 

OBJECT_NAME    = 1998-067XX
OBJECT_ID      = 1998-067XX
CENTER_NAME    = EARTH
REF_FRAME      = TEME
TIME_SYSTEM    = UTC
MEAN_ELEMENT_THEORY = SGP/SGP4

EPOCH          = 2026-01-21T11:52:35.094432
MEAN_MOTION    = 15.59475718
ECCENTRICITY   = .0002382
INCLINATION    = 51.6280
RA_OF_ASC_NODE = 303.7609
ARG_OF_PERICENTER = 112.1742
MEAN_ANOMALY   = 247.9504

EPHEMERIS_TYPE = 0
CLASSIFICATION_TYPE = U
NORAD_CAT_ID   = 66911
ELEMENT_SET_NO = 999
REV_AT_EPOCH   = 779
BSTAR          = .14874E-2
MEAN_MOTION_DOT = .121498E-2
MEAN_MOTION_DDOT = 0

CCSDS_OMM_VERS = 2.0
CREATION_DATE  = 
ORIGINATOR     = 

OBJECT_NAME    = 1998-067XY
OBJECT_ID      = 1998-067XY
CENTER_NAME    = EARTH
REF_FRAME      = TEME
TIME_SYSTEM    = UTC
MEAN_ELEMENT_THEORY = SGP/SGP4

EPOCH          = 2026-01-20T12:32:27.953664
MEAN_MOTION    = 15.55655265
ECCENTRICITY   = .00031088
INCLINATION    = 51.6315
RA_OF_ASC_NODE = 309.2704
ARG_OF_PERICENTER = 71.2936
MEAN_ANOMALY   = 288.8392

EPHEMERIS_TYPE = 0
CLASSIFICATION_TYPE = U
NORAD_CAT_ID   = 66912
ELEMENT_SET_NO = 999
REV_AT_EPOCH   = 763
BSTAR          = .17430341E-2
MEAN_MOTION_DOT = .123468E-2
MEAN_MOTION_DDOT = 0

