DUPLEX                  
1 66906U 98067XS  26021.40111051  .00029514  00000+0  47182-3 0  9996
2 66906  51.6311 305.3892 0001960  40.4945 319.6190 15.52903830  7774
1998-067XT              
1 66907U 98067XT  26020.75491536  .00170709  00000+0  22403-2 0  9994
2 66907  51.6299 307.8230 0003450  94.6771 265.4615 15.57431475  7683
1998-067XU              
1 66908U 98067XU  26020.94674669  .00126600  00000+0  16736-2 0  9999
2 66908  51.6296 306.8521 0003357  91.6665 268.4712 15.57411728  7712
SILVERSAT               
1 66909U 98067XV  26021.51219325  .00113589  00000+0  14429-2 0  9997
2 66909  51.6302 303.8789 0003622 107.2131 252.9258 15.58528554  7801
1998-067XW              
1 66910U 98067XW  26021.19500968  .00116308  00000+0  15170-2 0  9995
2 66910  51.6292 305.5072 0002133  84.1461 275.9774 15.57818344  7750
1998-067XX              
1 66911U 98067XX  26021.49485063  .00121498  00000+0  14874-2 0  9993
2 66911  51.6280 303.7609 0002382 112.1742 247.9504 15.59475718  7794
1998-067XY              
1 66912U 98067XY  26020.52254576  .00123468  00000+0  17430-2 0  9990
2 66912  51.6315 309.2704 0003108  71.2936 288.8392 15.55655265  7633
